[
  {
    "id": "668ad91cc633c3706c3ad744",
    "districtCity": null,
    "state": "Rajasthan",
    "city": "kota",
    "village": "jaskfds",
    "pincode": "fsasfdds"
  },
  {
    "id": "668ee81cf018d66b15770165",
    "districtCity": null,
    "state": "Madhya Pradesh",
    "city": "bhopal",
    "village": "katawer",
    "pincode": "47297"
  },
  {
    "id": "669024681c3db034d23aeca8",
    "districtCity": null,
    "state": "Madhya Pradesh",
    "city": "baran",
    "village": "katawer",
    "pincode": "423438"
  },
  {
    "id": "6693cf898c662d052e6c2f2b",
    "districtCity": null,
    "state": "Madhya Pradesh",
    "city": "kota",
    "village": "katawer",
    "pincode": "325223"
  },
  {
    "id": "6694ddb08c662d052e6c2f32",
    "districtCity": null,
    "state": "Punjab",
    "city": "chabra",
    "village": "khrli",
    "pincode": "47297"
  },
  {
    "id": "66a131091757b75b88f0fdda",
    "districtCity": null,
    "state": "Punjab",
    "city": "khanpur",
    "village": "sdfkjdfsh",
    "pincode": "ldfsjdskf"
  },
  {
    "id": "66e25168d2f6656e26b5d09b",
    "districtCity": null,
    "state": "Rajasthan",
    "city": "Jaipur",
    "village": "Jaipur",
    "pincode": "302017"
  },
  {
    "id": "6710e3002d1f632d373f6d64",
    "districtCity": null,
    "state": "Rajasthan",
    "city": "Baran",
    "village": "afjklsfj",
    "pincode": "325223"
  }
]
